CCSDS_OMM_VERS = 2.0
CREATION_DATE  = 
ORIGINATOR     = 

OBJECT_NAME    = UNKNOWN
OBJECT_ID      = 
CENTER_NAME    = EARTH
REF_FRAME      = TEME
TIME_SYSTEM    = UTC
MEAN_ELEMENT_THEORY = SGP/SGP4

EPOCH          = 2026-04-02T08:48:26.360064
MEAN_MOTION    = 13.62228641
ECCENTRICITY   = .0672086
INCLINATION    = 65.8224
RA_OF_ASC_NODE = 323.0320
ARG_OF_PERICENTER = 253.7779
MEAN_ANOMALY   = 286.8595

EPHEMERIS_TYPE = 0
CLASSIFICATION_TYPE = U
NORAD_CAT_ID   = 87517
ELEMENT_SET_NO = 999
REV_AT_EPOCH   = 60797
BSTAR          = .83249E-3
MEAN_MOTION_DOT = .2984E-4
MEAN_MOTION_DDOT = 0

CCSDS_OMM_VERS = 2.0
CREATION_DATE  = 
ORIGINATOR     = 

OBJECT_NAME    = UNKNOWN
OBJECT_ID      = 
CENTER_NAME    = EARTH
REF_FRAME      = TEME
TIME_SYSTEM    = UTC
MEAN_ELEMENT_THEORY = SGP/SGP4

EPOCH          = 2026-03-28T01:39:03.456864
MEAN_MOTION    = 13.35622472
ECCENTRICITY   = .0060369
INCLINATION    = 99.6949
RA_OF_ASC_NODE = 300.6680
ARG_OF_PERICENTER = 8.2810
MEAN_ANOMALY   = 144.9369

EPHEMERIS_TYPE = 0
CLASSIFICATION_TYPE = U
NORAD_CAT_ID   = 87541
ELEMENT_SET_NO = 999
REV_AT_EPOCH   = 59609
BSTAR          = .34335E-3
MEAN_MOTION_DOT = .135E-5
MEAN_MOTION_DDOT = 0

CCSDS_OMM_VERS = 2.0
CREATION_DATE  = 
ORIGINATOR     = 

OBJECT_NAME    = UNKNOWN
OBJECT_ID      = 
CENTER_NAME    = EARTH
REF_FRAME      = TEME
TIME_SYSTEM    = UTC
MEAN_ELEMENT_THEORY = SGP/SGP4

EPOCH          = 2026-04-03T15:57:33.526368
MEAN_MOTION    = 13.54256942
ECCENTRICITY   = .0688518
INCLINATION    = 65.6649
RA_OF_ASC_NODE = 84.8521
ARG_OF_PERICENTER = 177.8174
MEAN_ANOMALY   = 182.6171

EPHEMERIS_TYPE = 0
CLASSIFICATION_TYPE = U
NORAD_CAT_ID   = 87553
ELEMENT_SET_NO = 999
REV_AT_EPOCH   = 60640
BSTAR          = .71428E-3
MEAN_MOTION_DOT = .2221E-4
MEAN_MOTION_DDOT = 0

CCSDS_OMM_VERS = 2.0
CREATION_DATE  = 
ORIGINATOR     = 

OBJECT_NAME    = UNKNOWN
OBJECT_ID      = 
CENTER_NAME    = EARTH
REF_FRAME      = TEME
TIME_SYSTEM    = UTC
MEAN_ELEMENT_THEORY = SGP/SGP4

EPOCH          = 2026-04-04T14:00:54.832608
MEAN_MOTION    = 13.28804477
ECCENTRICITY   = .0058501
INCLINATION    = 101.7849
RA_OF_ASC_NODE = 330.0997
ARG_OF_PERICENTER = 119.8659
MEAN_ANOMALY   = 240.8287

EPHEMERIS_TYPE = 0
CLASSIFICATION_TYPE = U
NORAD_CAT_ID   = 87557
ELEMENT_SET_NO = 999
REV_AT_EPOCH   = 58001
BSTAR          = .13169E-1
MEAN_MOTION_DOT = .605E-4
MEAN_MOTION_DDOT = 0

CCSDS_OMM_VERS = 2.0
CREATION_DATE  = 
ORIGINATOR     = 

OBJECT_NAME    = UNKNOWN
OBJECT_ID      = 
CENTER_NAME    = EARTH
REF_FRAME      = TEME
TIME_SYSTEM    = UTC
MEAN_ELEMENT_THEORY = SGP/SGP4

EPOCH          = 2026-04-03T10:12:06.353856
MEAN_MOTION    = 12.32163774
ECCENTRICITY   = .0175026
INCLINATION    = 101.9896
RA_OF_ASC_NODE = 152.7974
ARG_OF_PERICENTER = 89.0755
MEAN_ANOMALY   = 296.8043

EPHEMERIS_TYPE = 0
CLASSIFICATION_TYPE = U
NORAD_CAT_ID   = 87561
ELEMENT_SET_NO = 999
REV_AT_EPOCH   = 55619
BSTAR          = -.38596E-3
MEAN_MOTION_DOT = -.92E-6
MEAN_MOTION_DDOT = 0

CCSDS_OMM_VERS = 2.0
CREATION_DATE  = 
ORIGINATOR     = 

OBJECT_NAME    = UNKNOWN
OBJECT_ID      = 
CENTER_NAME    = EARTH
REF_FRAME      = TEME
TIME_SYSTEM    = UTC
MEAN_ELEMENT_THEORY = SGP/SGP4

EPOCH          = 2026-03-29T23:10:27.379488
MEAN_MOTION    = 14.06319662
ECCENTRICITY   = .0170717
INCLINATION    = 99.9535
RA_OF_ASC_NODE = 96.1265
ARG_OF_PERICENTER = 240.3580
MEAN_ANOMALY   = 118.0489

EPHEMERIS_TYPE = 0
CLASSIFICATION_TYPE = U
NORAD_CAT_ID   = 87565
ELEMENT_SET_NO = 999
REV_AT_EPOCH   = 63150
BSTAR          = .56895E-3
MEAN_MOTION_DOT = .1017E-4
MEAN_MOTION_DDOT = 0

CCSDS_OMM_VERS = 2.0
CREATION_DATE  = 
ORIGINATOR     = 

OBJECT_NAME    = UNKNOWN
OBJECT_ID      = 
CENTER_NAME    = EARTH
REF_FRAME      = TEME
TIME_SYSTEM    = UTC
MEAN_ELEMENT_THEORY = SGP/SGP4

EPOCH          = 2026-04-02T17:52:45.524640
MEAN_MOTION    = 12.68545575
ECCENTRICITY   = .005566
INCLINATION    = 101.9966
RA_OF_ASC_NODE = 279.3937
ARG_OF_PERICENTER = 35.8774
MEAN_ANOMALY   = 343.4594

EPHEMERIS_TYPE = 0
CLASSIFICATION_TYPE = U
NORAD_CAT_ID   = 87569
ELEMENT_SET_NO = 999
REV_AT_EPOCH   = 57254
BSTAR          = .97437E-4
MEAN_MOTION_DOT = -.29E-6
MEAN_MOTION_DDOT = 0

CCSDS_OMM_VERS = 2.0
CREATION_DATE  = 
ORIGINATOR     = 

OBJECT_NAME    = UNKNOWN
OBJECT_ID      = 
CENTER_NAME    = EARTH
REF_FRAME      = TEME
TIME_SYSTEM    = UTC
MEAN_ELEMENT_THEORY = SGP/SGP4

EPOCH          = 2026-03-28T01:32:30.671232
MEAN_MOTION    = 14.10476543
ECCENTRICITY   = .0025998
INCLINATION    = 98.7733
RA_OF_ASC_NODE = 126.7330
ARG_OF_PERICENTER = 348.3830
MEAN_ANOMALY   = 41.2894

EPHEMERIS_TYPE = 0
CLASSIFICATION_TYPE = U
NORAD_CAT_ID   = 87590
ELEMENT_SET_NO = 999
REV_AT_EPOCH   = 16909
BSTAR          = .30064E-3
MEAN_MOTION_DOT = .493E-5
MEAN_MOTION_DDOT = 0

CCSDS_OMM_VERS = 2.0
CREATION_DATE  = 
ORIGINATOR     = 

OBJECT_NAME    = UNKNOWN
OBJECT_ID      = 
CENTER_NAME    = EARTH
REF_FRAME      = TEME
TIME_SYSTEM    = UTC
MEAN_ELEMENT_THEORY = SGP/SGP4

EPOCH          = 2026-04-03T22:49:38.756064
MEAN_MOTION    = 12.47050957
ECCENTRICITY   = .062964
INCLINATION    = 66.0344
RA_OF_ASC_NODE = 287.8971
ARG_OF_PERICENTER = 90.5429
MEAN_ANOMALY   = 52.5305

EPHEMERIS_TYPE = 0
CLASSIFICATION_TYPE = U
NORAD_CAT_ID   = 87616
ELEMENT_SET_NO = 999
REV_AT_EPOCH   = 55022
BSTAR          = .27181E-2
MEAN_MOTION_DOT = .757E-5
MEAN_MOTION_DDOT = 0

CCSDS_OMM_VERS = 2.0
CREATION_DATE  = 
ORIGINATOR     = 

OBJECT_NAME    = UNKNOWN
OBJECT_ID      = 
CENTER_NAME    = EARTH
REF_FRAME      = TEME
TIME_SYSTEM    = UTC
MEAN_ELEMENT_THEORY = SGP/SGP4

EPOCH          = 2026-04-04T07:25:54.189408
MEAN_MOTION    = 14.71637794
ECCENTRICITY   = .0093812
INCLINATION    = 98.6934
RA_OF_ASC_NODE = 44.1157
ARG_OF_PERICENTER = 256.0759
MEAN_ANOMALY   = 102.9998

EPHEMERIS_TYPE = 0
CLASSIFICATION_TYPE = U
NORAD_CAT_ID   = 87624
ELEMENT_SET_NO = 999
REV_AT_EPOCH   = 59682
BSTAR          = .13865E-2
MEAN_MOTION_DOT = .9194E-4
MEAN_MOTION_DDOT = 0

CCSDS_OMM_VERS = 2.0
CREATION_DATE  = 
ORIGINATOR     = 

OBJECT_NAME    = UNKNOWN
OBJECT_ID      = 
CENTER_NAME    = EARTH
REF_FRAME      = TEME
TIME_SYSTEM    = UTC
MEAN_ELEMENT_THEORY = SGP/SGP4

EPOCH          = 2026-03-30T07:23:06.461952
MEAN_MOTION    = 14.64559171
ECCENTRICITY   = .0030373
INCLINATION    = 100.2696
RA_OF_ASC_NODE = 295.7104
ARG_OF_PERICENTER = 325.7227
MEAN_ANOMALY   = 34.2008

EPHEMERIS_TYPE = 0
CLASSIFICATION_TYPE = U
NORAD_CAT_ID   = 87650
ELEMENT_SET_NO = 999
REV_AT_EPOCH   = 9549
BSTAR          = .2471E-2
MEAN_MOTION_DOT = .13155E-3
MEAN_MOTION_DDOT = 0

CCSDS_OMM_VERS = 2.0
CREATION_DATE  = 
ORIGINATOR     = 

OBJECT_NAME    = UNKNOWN
OBJECT_ID      = 
CENTER_NAME    = EARTH
REF_FRAME      = TEME
TIME_SYSTEM    = UTC
MEAN_ELEMENT_THEORY = SGP/SGP4

EPOCH          = 2026-04-04T08:04:27.914880
MEAN_MOTION    = 14.28416321
ECCENTRICITY   = .0054105
INCLINATION    = 70.8554
RA_OF_ASC_NODE = 123.2958
ARG_OF_PERICENTER = 102.1574
MEAN_ANOMALY   = 258.5623

EPHEMERIS_TYPE = 0
CLASSIFICATION_TYPE = U
NORAD_CAT_ID   = 87672
ELEMENT_SET_NO = 999
REV_AT_EPOCH   = 64053
BSTAR          = .14093E-2
MEAN_MOTION_DOT = .3534E-4
MEAN_MOTION_DDOT = 0

