{"fetched_at":"2026-04-05T05:47:15Z","count":17019,"tles":[{"name":"UNKNOWN","line1":"1 87565U          26088.96559467  .00001017  00000+0  56895-3 0  9990","line2":"2 87565  99.9535  96.1265 0170717 240.3580 118.0489 14.06319662631501","category":"Other"},{"name":"UNKNOWN","line1":"1 87569U          26092.74497135 -.00000029  00000+0  97437-4 0  9999","line2":"2 87569 101.9966 279.3937 0055660  35.8774 343.4594 12.68545575572548","category":"Other"},{"name":"UNKNOWN","line1":"1 87590U          26087.06424388  .00000493  00000+0  30064-3 0  9998","line2":"2 87590  98.7733 126.7330 0025998 348.3830  41.2894 14.10476543169090","category":"Other"},{"name":"UNKNOWN","line1":"1 87616U          26093.95114301  .00000757  00000+0  27181-2 0  9991","line2":"2 87616  66.0344 287.8971 0629640  90.5429  52.5305 12.47050957550225","category":"Other"},{"name":"UNKNOWN","line1":"1 87624U          26094.30965497  .00009194  00000+0  13865-2 0  9998","line2":"2 87624  98.6934  44.1157 0093812 256.0759 102.9998 14.71637794596824","category":"Other"},{"name":"UNKNOWN","line1":"1 87650U          26089.30771368  .00013155  00000+0  24710-2 0  9996","line2":"2 87650 100.2696 295.7104 0030373 325.7227  34.2008 14.64559171 95491","category":"Other"},{"name":"UNKNOWN","line1":"1 87672U          26094.33643420  .00003534  00000+0  14093-2 0  9999","line2":"2 87672  70.8554 123.2958 0054105 102.1574 258.5623 14.28416321640537","category":"Other"},{"name":"UNKNOWN","line1":"1 87517U          26092.36697176  .00002984  00000+0  83249-3 0  9993","line2":"2 87517  65.8224 323.0320 0672086 253.7779 286.8595 13.62228641607976","category":"Other"},{"name":"UNKNOWN","line1":"1 87541U          26087.06879001  .00000135  00000+0  34335-3 0  9998","line2":"2 87541  99.6949 300.6680 0060369   8.2810 144.9369 13.35622472596099","category":"Other"},{"name":"UNKNOWN","line1":"1 87553U          26093.66497137  .00002221  00000+0  71428-3 0  9992","line2":"2 87553  65.6649  84.8521 0688518 177.8174 182.6171 13.54256942606408","category":"Other"},{"name":"UNKNOWN","line1":"1 87557U          26094.58396797  .00006050  00000+0  13169-1 0  9998","line2":"2 87557 101.7849 330.0997 0058501 119.8659 240.8287 13.28804477580012","category":"Other"},{"name":"UNKNOWN","line1":"1 87561U          26093.42507354 -.00000092  00000+0 -38596-3 0  9993","line2":"2 87561 101.9896 152.7974 0175026  89.0755 296.8043 12.32163774556197","category":"Other"}]}